[
    {
        "Altitude(m)": 558585.951192987,
        "Argument of Periapsis(deg)": 0.013245982221427002,
        "Eccentricity": 0.0,
        "Inclination(deg)": 53.0,
        "Latitude(deg)": -19.00234141434581,
        "Longitude(deg)": -171.62029999394727,
        "Mean Anomaly(deg)": 203.81958573515516,
        "RAAN(deg)": 94.98028673705603,
        "Satellite Name": "Starlink Shell 1 429",
        "Satellite Number": 429,
        "Semi-Major Axis(m)": 6931778.249405717,
        "Time(s)": 380
    },
    {
        "Altitude(m)": 558740.9929027352,
        "Argument of Periapsis(deg)": 0.013594560700938237,
        "Eccentricity": 0.0,
        "Inclination(deg)": 53.0,
        "Latitude(deg)": -19.48770594352064,
        "Longitude(deg)": -171.23978368079545,
        "Mean Anomaly(deg)": 204.44641693871196,
        "RAAN(deg)": 94.97976796697857,
        "Satellite Name": "Starlink Shell 1 429",
        "Satellite Number": 429,
        "Semi-Major Axis(m)": 6931778.249405717,
        "Time(s)": 390
    },
    {
        "Altitude(m)": 558897.5555086299,
        "Argument of Periapsis(deg)": 0.013943139180449475,
        "Eccentricity": 0.0,
        "Inclination(deg)": 53.0,
        "Latitude(deg)": -19.972042072887184,
        "Longitude(deg)": -170.8567637024918,
        "Mean Anomaly(deg)": 205.0732481422686,
        "RAAN(deg)": 94.9792491969011,
        "Satellite Name": "Starlink Shell 1 429",
        "Satellite Number": 429,
        "Semi-Major Axis(m)": 6931778.249405717,
        "Time(s)": 400
    },
    {
        "Altitude(m)": 559055.5849481618,
        "Argument of Periapsis(deg)": 0.014291717659960712,
        "Eccentricity": 0.0,
        "Inclination(deg)": 53.0,
        "Latitude(deg)": -20.455316721067728,
        "Longitude(deg)": -170.47116198022005,
        "Mean Anomaly(deg)": 205.70007934582534,
        "RAAN(deg)": 94.97873042682362,
        "Satellite Name": "Starlink Shell 1 429",
        "Satellite Number": 429,
        "Semi-Major Axis(m)": 6931778.249405717,
        "Time(s)": 410
    },
    {
        "Altitude(m)": 559215.0263554618,
        "Argument of Periapsis(deg)": 0.014640296139471948,
        "Eccentricity": 0.0,
        "Inclination(deg)": 53.0,
        "Latitude(deg)": -20.937496218677737,
        "Longitude(deg)": -170.08289990399393,
        "Mean Anomaly(deg)": 206.326910549382,
        "RAAN(deg)": 94.97821165674615,
        "Satellite Name": "Starlink Shell 1 429",
        "Satellite Number": 429,
        "Semi-Major Axis(m)": 6931778.249405717,
        "Time(s)": 420
    },
    {
        "Altitude(m)": 559375.8240857469,
        "Argument of Periapsis(deg)": 0.014988874618983185,
        "Eccentricity": 0.0,
        "Inclination(deg)": 53.0,
        "Latitude(deg)": -21.418546287096788,
        "Longitude(deg)": -169.69189780424588,
        "Mean Anomaly(deg)": 206.95374175293875,
        "RAAN(deg)": 94.97769288666868,
        "Satellite Name": "Starlink Shell 1 429",
        "Satellite Number": 429,
        "Semi-Major Axis(m)": 6931778.249405717,
        "Time(s)": 430
    },
    {
        "Altitude(m)": 559537.9217401175,
        "Argument of Periapsis(deg)": 0.015337453098494424,
        "Eccentricity": 0.0,
        "Inclination(deg)": 53.0,
        "Latitude(deg)": -21.8984320167633,
        "Longitude(deg)": -169.29807442396498,
        "Mean Anomaly(deg)": 207.58057295649547,
        "RAAN(deg)": 94.9771741165912,
        "Satellite Name": "Starlink Shell 1 429",
        "Satellite Number": 429,
        "Semi-Major Axis(m)": 6931778.249405717,
        "Time(s)": 440
    },
    {
        "Altitude(m)": 559701.2621907324,
        "Argument of Periapsis(deg)": 0.01568603157800566,
        "Eccentricity": 0.0,
        "Inclination(deg)": 53.0,
        "Latitude(deg)": -22.377117844981548,
        "Longitude(deg)": -168.90134790433305,
        "Mean Anomaly(deg)": 208.20740416005216,
        "RAAN(deg)": 94.97665534651374,
        "Satellite Name": "Starlink Shell 1 429",
        "Satellite Number": 429,
        "Semi-Major Axis(m)": 6931778.249405717,
        "Time(s)": 450
    },
    {
        "Altitude(m)": 559865.7876063228,
        "Argument of Periapsis(deg)": 0.0160346100575169,
        "Eccentricity": 0.0,
        "Inclination(deg)": 53.0,
        "Latitude(deg)": -22.8545675332387,
        "Longitude(deg)": -168.5016352581962,
        "Mean Anomaly(deg)": 208.83423536360894,
        "RAAN(deg)": 94.97613657643626,
        "Satellite Name": "Starlink Shell 1 429",
        "Satellite Number": 429,
        "Semi-Major Axis(m)": 6931778.249405717,
        "Time(s)": 460
    },
    {
        "Altitude(m)": 560031.4394780339,
        "Argument of Periapsis(deg)": 0.016383188537028134,
        "Eccentricity": 0.0,
        "Inclination(deg)": 53.0,
        "Latitude(deg)": -23.330744144022386,
        "Longitude(deg)": -168.0988518443328,
        "Mean Anomaly(deg)": 209.46106656716557,
        "RAAN(deg)": 94.97561780635878,
        "Satellite Name": "Starlink Shell 1 429",
        "Satellite Number": 429,
        "Semi-Major Axis(m)": 6931778.249405717,
        "Time(s)": 470
    },
    {
        "Altitude(m)": 560198.1586455946,
        "Argument of Periapsis(deg)": 0.01673176701653937,
        "Eccentricity": 0.0,
        "Inclination(deg)": 53.0,
        "Latitude(deg)": -23.805610017129652,
        "Longitude(deg)": -167.6929123554907,
        "Mean Anomaly(deg)": 210.08789777072235,
        "RAAN(deg)": 94.9750990362813,
        "Satellite Name": "Starlink Shell 1 429",
        "Satellite Number": 429,
        "Semi-Major Axis(m)": 6931778.249405717,
        "Time(s)": 480
    },
    {
        "Altitude(m)": 560365.8853238053,
        "Argument of Periapsis(deg)": 0.017080345496050607,
        "Eccentricity": 0.0,
        "Inclination(deg)": 53.0,
        "Latitude(deg)": -24.279126745466407,
        "Longitude(deg)": -167.28373029455142,
        "Mean Anomaly(deg)": 210.71472897427907,
        "RAAN(deg)": 94.97458026620384,
        "Satellite Name": "Starlink Shell 1 429",
        "Satellite Number": 429,
        "Semi-Major Axis(m)": 6931778.249405717,
        "Time(s)": 490
    },
    {
        "Altitude(m)": 560534.5591292827,
        "Argument of Periapsis(deg)": 0.017428923975561842,
        "Eccentricity": 0.0,
        "Inclination(deg)": 53.0,
        "Latitude(deg)": -24.751255150333417,
        "Longitude(deg)": -166.87121745180906,
        "Mean Anomaly(deg)": 211.34156017783576,
        "RAAN(deg)": 94.97406149612637,
        "Satellite Name": "Starlink Shell 1 429",
        "Satellite Number": 429,
        "Semi-Major Axis(m)": 6931778.249405717,
        "Time(s)": 500
    },
    {
        "Altitude(m)": 560704.1191075365,
        "Argument of Periapsis(deg)": 0.01777750245507308,
        "Eccentricity": 0.0,
        "Inclination(deg)": 53.0,
        "Latitude(deg)": -25.221955256190586,
        "Longitude(deg)": -166.45528489635942,
        "Mean Anomaly(deg)": 211.96839138139248,
        "RAAN(deg)": 94.9735427260489,
        "Satellite Name": "Starlink Shell 1 429",
        "Satellite Number": 429,
        "Semi-Major Axis(m)": 6931778.249405717,
        "Time(s)": 510
    },
    {
        "Altitude(m)": 560874.503760271,
        "Argument of Periapsis(deg)": 0.018126080934584315,
        "Eccentricity": 0.0,
        "Inclination(deg)": 53.0,
        "Latitude(deg)": -25.691186264904758,
        "Longitude(deg)": -166.03584245598742,
        "Mean Anomaly(deg)": 212.59522258494917,
        "RAAN(deg)": 94.97302395597143,
        "Satellite Name": "Starlink Shell 1 429",
        "Satellite Number": 429,
        "Semi-Major Axis(m)": 6931778.249405717,
        "Time(s)": 520
    },
    {
        "Altitude(m)": 561045.6510729509,
        "Argument of Periapsis(deg)": 0.018474659414095554,
        "Eccentricity": 0.0,
        "Inclination(deg)": 53.0,
        "Latitude(deg)": -26.15890652947941,
        "Longitude(deg)": -165.6127981985665,
        "Mean Anomaly(deg)": 213.22205378850586,
        "RAAN(deg)": 94.97250518589394,
        "Satellite Name": "Starlink Shell 1 429",
        "Satellite Number": 429,
        "Semi-Major Axis(m)": 6931778.249405717,
        "Time(s)": 530
    },
    {
        "Altitude(m)": 561217.4985426082,
        "Argument of Periapsis(deg)": 0.018823237893606792,
        "Eccentricity": 0.0,
        "Inclination(deg)": 53.0,
        "Latitude(deg)": -26.625073527264092,
        "Longitude(deg)": -165.18605942799886,
        "Mean Anomaly(deg)": 213.84888499206264,
        "RAAN(deg)": 94.97198641581647,
        "Satellite Name": "Starlink Shell 1 429",
        "Satellite Number": 429,
        "Semi-Major Axis(m)": 6931778.249405717,
        "Time(s)": 540
    },
    {
        "Altitude(m)": 561389.9832058916,
        "Argument of Periapsis(deg)": 0.019171816373118027,
        "Eccentricity": 0.0,
        "Inclination(deg)": 53.0,
        "Latitude(deg)": -27.089643832653717,
        "Longitude(deg)": -164.7555321691147,
        "Mean Anomaly(deg)": 214.47571619561936,
        "RAAN(deg)": 94.97146764573901,
        "Satellite Name": "Starlink Shell 1 429",
        "Satellite Number": 429,
        "Semi-Major Axis(m)": 6931778.249405717,
        "Time(s)": 550
    },
    {
        "Altitude(m)": 561563.0416672847,
        "Argument of Periapsis(deg)": 0.019520394852629266,
        "Eccentricity": 0.0,
        "Inclination(deg)": 53.0,
        "Latitude(deg)": -27.552573089282266,
        "Longitude(deg)": -164.3211206545792,
        "Mean Anomaly(deg)": 215.1025473991761,
        "RAAN(deg)": 94.97094887566153,
        "Satellite Name": "Starlink Shell 1 429",
        "Satellite Number": 429,
        "Semi-Major Axis(m)": 6931778.249405717,
        "Time(s)": 560
    }
]